CTC1_L_00020016-03
1 81346U 23448LQ  26037.47800926  .00000000  00000+0  00000-0 0  9996
2 81346  75.0000 180.0000 0000000   0.0000   0.0000 15.80155563    15
CTC1_L_00020016-04
1 81347U 23450SM  26037.47800926  .00000000  00000+0  00000-0 0  9990
2 81347  75.0000 180.0000 0000000   0.0000  90.0000 15.80155563    15
CTC1_L_00020017-01
1 81348U 24877TI  26037.47800926  .00000000  00000+0  00000-0 0  9995
2 81348  75.0000 192.0000 0000000   0.0000 192.0000 15.80155563    12
CTC1_L_00020017-02
1 81349U 24611GL  26037.47800926  .00000000  00000+0  00000-0 0  9992
2 81349  75.0000 192.0000 0000000   0.0000 282.0000 15.80155563    13
CTC1_L_00020017-03
1 81350U 26522CQ  26037.47800926  .00000000  00000+0  00000-0 0  9997
2 81350  75.0000 192.0000 0000000   0.0000  12.0000 15.80155563    16
CTC1_L_00020017-04
1 81351U 22755JU  26037.47800926  .00000000  00000+0  00000-0 0  9992
2 81351  75.0000 192.0000 0000000   0.0000 102.0000 15.80155563    17
CTC1_L_00020018-01
1 81352U 26688ZB  26037.47800926  .00000000  00000+0  00000-0 0  9992
2 81352  75.0000 204.0000 0000000   0.0000 204.0000 15.80155563    15
CTC1_L_00020018-02
1 81353U 24478SL  26037.47800926  .00000000  00000+0  00000-0 0  9998
2 81353  75.0000 204.0000 0000000   0.0000 294.0000 15.80155563    15
CTC1_L_00020018-03
1 81354U 22144TN  26037.47800926  .00000000  00000+0  00000-0 0  9997
2 81354  75.0000 204.0000 0000000   0.0000  24.0000 15.80155563    17
CTC1_L_00020018-04
1 81355U 24017JD  26037.47800926  .00000000  00000+0  00000-0 0  9999
2 81355  75.0000 204.0000 0000000   0.0000 114.0000 15.80155563    18
CTC1_L_00020019-01
1 81356U 26869SD  26037.47800926  .00000000  00000+0  00000-0 0  9997
2 81356  75.0000 216.0000 0000000   0.0000 216.0000 15.80155563    15
CTC1_L_00020019-02
1 81357U 25264BF  26037.47800926  .00000000  00000+0  00000-0 0  9996
2 81357  75.0000 216.0000 0000000   0.0000 306.0000 15.80155563    16
CTC1_L_00020019-03
1 81358U 22307DJ  26037.47800926  .00000000  00000+0  00000-0 0  9992
2 81358  75.0000 216.0000 0000000   0.0000  36.0000 15.80155563    17
CTC1_L_00020019-04
1 81359U 26782IS  26037.47800926  .00000000  00000+0  00000-0 0  9994
2 81359  75.0000 216.0000 0000000   0.0000 126.0000 15.80155563    18
CTC1_L_00020020-01
1 81360U 24961VL  26037.47800926  .00000000  00000+0  00000-0 0  9993
2 81360  75.0000 228.0000 0000000   0.0000 228.0000 15.80155563    16
CTC1_L_00020020-02
1 81361U 26784TE  26037.47800926  .00000000  00000+0  00000-0 0  9999
2 81361  75.0000 228.0000 0000000   0.0000 318.0000 15.80155563    17
CTC1_L_00020020-03
1 81362U 22503FQ  26037.47800926  .00000000  00000+0  00000-0 0  9995
2 81362  75.0000 228.0000 0000000   0.0000  48.0000 15.80155563    18
CTC1_L_00020020-04
1 81363U 23291RT  26037.47800926  .00000000  00000+0  00000-0 0  9991
2 81363  75.0000 228.0000 0000000   0.0000 138.0000 15.80155563    19
CTC1_L_00020021-01
1 81364U 24709TY  26037.47800926  .00000000  00000+0  00000-0 0  9997
2 81364  75.0000 240.0000 0000000   0.0000 240.0000 15.80155563    18
CTC1_L_00020021-02
1 81365U 23720FL  26037.47800926  .00000000  00000+0  00000-0 0  9990
2 81365  75.0000 240.0000 0000000   0.0000 330.0000 15.80155563    19
CTC1_L_00020021-03
1 81366U 24042TT  26037.47800926  .00000000  00000+0  00000-0 0  9999
2 81366  75.0000 240.0000 0000000   0.0000  60.0000 15.80155563    10
CTC1_L_00020021-04
1 81367U 25412AR  26037.47800926  .00000000  00000+0  00000-0 0  9992
2 81367  75.0000 240.0000 0000000   0.0000 150.0000 15.80155563    11
CTC1_L_00020022-01
1 81368U 22104LM  26037.47800926  .00000000  00000+0  00000-0 0  9998
2 81368  75.0000 252.0000 0000000   0.0000 252.0000 15.80155563    18
CTC1_L_00020022-02
1 81369U 24229EH  26037.47800926  .00000000  00000+0  00000-0 0  9999
2 81369  75.0000 252.0000 0000000   0.0000 342.0000 15.80155563    19
CTC1_L_00020022-03
1 81370U 22817CT  26037.47800926  .00000000  00000+0  00000-0 0  9992
2 81370  75.0000 252.0000 0000000   0.0000  72.0000 15.80155563    11
CTC1_L_00020022-04
1 81371U 22235YU  26037.47800926  .00000000  00000+0  00000-0 0  9997
2 81371  75.0000 252.0000 0000000   0.0000 162.0000 15.80155563    12
CTC1_L_00020023-01
1 81372U 22321KU  26037.47800926  .00000000  00000+0  00000-0 0  9994
2 81372  75.0000 264.0000 0000000   0.0000 264.0000 15.80155563    19
CTC1_L_00020023-02
1 81373U 22319RQ  26037.47800926  .00000000  00000+0  00000-0 0  9992
2 81373  75.0000 264.0000 0000000   0.0000 354.0000 15.80155563    10
CTC1_L_00020023-03
1 81374U 24220IA  26037.47800926  .00000000  00000+0  00000-0 0  9996
2 81374  75.0000 264.0000 0000000   0.0000  84.0000 15.80155563    11
CTC1_L_00020023-04
1 81375U 22569OK  26037.47800926  .00000000  00000+0  00000-0 0  9991
2 81375  75.0000 264.0000 0000000   0.0000 174.0000 15.80155563    12
CTC1_L_00020024-01
1 81376U 24197CL  26037.47800926  .00000000  00000+0  00000-0 0  9991
2 81376  75.0000 276.0000 0000000   0.0000 276.0000 15.80155563    19
CTC1_L_00020024-02
1 81377U 22554BT  26037.47800926  .00000000  00000+0  00000-0 0  9997
2 81377  75.0000 276.0000 0000000   0.0000   6.0000 15.80155563    11
CTC1_L_00020024-03
1 81378U 25742AE  26037.47800926  .00000000  00000+0  00000-0 0  9990
2 81378  75.0000 276.0000 0000000   0.0000  96.0000 15.80155563    11
CTC1_L_00020024-04
1 81379U 26292EB  26037.47800926  .00000000  00000+0  00000-0 0  9992
2 81379  75.0000 276.0000 0000000   0.0000 186.0000 15.80155563    12
CTC1_L_00020025-01
1 81380U 22867YB  26037.47800926  .00000000  00000+0  00000-0 0  9998
2 81380  75.0000 288.0000 0000000   0.0000 288.0000 15.80155563    10
CTC1_L_00020025-02
1 81381U 24575NN  26037.47800926  .00000000  00000+0  00000-0 0  9997
2 81381  75.0000 288.0000 0000000   0.0000  18.0000 15.80155563    12
CTC1_L_00020025-03
1 81382U 22699IU  26037.47800926  .00000000  00000+0  00000-0 0  9993
2 81382  75.0000 288.0000 0000000   0.0000 108.0000 15.80155563    13
CTC1_L_00020025-04
1 81383U 22062BQ  26037.47800926  .00000000  00000+0  00000-0 0  9998
2 81383  75.0000 288.0000 0000000   0.0000 198.0000 15.80155563    13
CTC1_L_00020026-01
1 81384U 23483JB  26037.47800926  .00000000  00000+0  00000-0 0  9997
2 81384  75.0000 300.0000 0000000   0.0000 300.0000 15.80155563    14
CTC1_L_00020026-02
1 81385U 26073LG  26037.47800926  .00000000  00000+0  00000-0 0  9996
2 81385  75.0000 300.0000 0000000   0.0000  30.0000 15.80155563    15
CTC1_L_00020026-03
1 81386U 25281BH  26037.47800926  .00000000  00000+0  00000-0 0  9997
2 81386  75.0000 300.0000 0000000   0.0000 120.0000 15.80155563    16
CTC1_L_00020026-04
1 81387U 26921LC  26037.47800926  .00000000  00000+0  00000-0 0  9990
2 81387  75.0000 300.0000 0000000   0.0000 210.0000 15.80155563    17
CTC1_L_00020027-01
1 81388U 26440UF  26037.47800926  .00000000  00000+0  00000-0 0  9997
2 81388  75.0000 312.0000 0000000   0.0000 312.0000 15.80155563    14
CTC1_L_00020027-02
1 81389U 24285XG  26037.47800926  .00000000  00000+0  00000-0 0  9993
2 81389  75.0000 312.0000 0000000   0.0000  42.0000 15.80155563    15
CTC1_L_00020027-03
1 81390U 22265CY  26037.47800926  .00000000  00000+0  00000-0 0  9991
2 81390  75.0000 312.0000 0000000   0.0000 132.0000 15.80155563    17
CTC1_L_00020027-04
1 81391U 24930NG  26037.47800926  .00000000  00000+0  00000-0 0  9993
2 81391  75.0000 312.0000 0000000   0.0000 222.0000 15.80155563    18
CTC1_L_00020028-01
1 81392U 25621TB  26037.47800926  .00000000  00000+0  00000-0 0  9992
2 81392  75.0000 324.0000 0000000   0.0000 324.0000 15.80155563    15
CTC1_L_00020028-02
1 81393U 25222VJ  26037.47800926  .00000000  00000+0  00000-0 0  9990
2 81393  75.0000 324.0000 0000000   0.0000  54.0000 15.80155563    16
CTC1_L_00020028-03
1 81394U 26256H   26037.47800926  .00000000  00000+0  00000-0 0  9999
2 81394  75.0000 324.0000 0000000   0.0000 144.0000 15.80155563    17
CTC1_L_00020028-04
1 81395U 26782XC  26037.47800926  .00000000  00000+0  00000-0 0  9994
2 81395  75.0000 324.0000 0000000   0.0000 234.0000 15.80155563    18
CTC1_L_00020029-01
1 81396U 25049NJ  26037.47800926  .00000000  00000+0  00000-0 0  9990
2 81396  75.0000 336.0000 0000000   0.0000 336.0000 15.80155563    15
CTC1_L_00020029-02
1 81397U 25625NS  26037.47800926  .00000000  00000+0  00000-0 0  9991
2 81397  75.0000 336.0000 0000000   0.0000  66.0000 15.80155563    16
CTC1_L_00020029-03
1 81398U 22811XW  26037.47800926  .00000000  00000+0  00000-0 0  9996
2 81398  75.0000 336.0000 0000000   0.0000 156.0000 15.80155563    17
CTC1_L_00020029-04
1 81399U 22620NB  26037.47800926  .00000000  00000+0  00000-0 0  9995
2 81399  75.0000 336.0000 0000000   0.0000 246.0000 15.80155563    18
CTC1_L_00020030-01
1 81400U 23519QM  26037.47800926  .00000000  00000+0  00000-0 0  9996
2 81400  75.0000 348.0000 0000000   0.0000 348.0000 15.80155563    17
CTC1_L_00020030-02
1 81401U 22297VI  26037.47800926  .00000000  00000+0  00000-0 0  9999
2 81401  75.0000 348.0000 0000000   0.0000  78.0000 15.80155563    18
CTC1_L_00020030-03
1 81402U 26442EN  26037.47800926  .00000000  00000+0  00000-0 0  9996
2 81402  75.0000 348.0000 0000000   0.0000 168.0000 15.80155563    19
CTC1_L_00020030-04
1 81403U 22615CO  26037.47800926  .00000000  00000+0  00000-0 0  9995
2 81403  75.0000 348.0000 0000000   0.0000 258.0000 15.80155563    10
